start=new Date('2022-04-27T00:00:00.000Z').valueOf();
sats=[{"MEAN_MOTION_DDOT":"0.0000000000000","EPHEMERIS_TYPE":"0","MEAN_MOTION_DOT":"0.00003169","TIME_SYSTEM":"UTC","SEMIMAJOR_AXIS":"6925.337","DECAY_DATE":null,"EPOCH":"2022-04-26T16:24:17.356608","GP_ID":"202108978","MEAN_ELEMENT_THEORY":"SGP4","TLE_LINE1":"1 45095U 20006BD  22116.68353422  .00003169  00000-0  23151-3 0  9990","NORAD_CAT_ID":"45095","ARG_OF_PERICENTER":"55.6756","PERIOD":"95.592","TLE_LINE2":"2 45095  53.0513 109.8514 0001938  55.6756 304.4416 15.06403741124050","MEAN_MOTION":"15.06403741","REV_AT_EPOCH":"12405","OBJECT_TYPE":"PAYLOAD","OBJECT_NAME":"STARLINK-1147","ELEMENT_SET_NO":"999","RA_OF_ASC_NODE":"109.8514","PERIAPSIS":"545.860","COUNTRY_CODE":"US","CLASSIFICATION_TYPE":"U","RCS_SIZE":"LARGE","REF_FRAME":"TEME","SITE":"AFETR","CENTER_NAME":"EARTH","BSTAR":"0.00023151000000","INCLINATION":"53.0513","APOAPSIS":"548.544","FILE":"3417474","LAUNCH_DATE":"2020-01-29","ECCENTRICITY":"0.00019380","MEAN_ANOMALY":"304.4416","OBJECT_ID":"2020-006BD"},{"OBJECT_NAME":"STARLINK-1152","OBJECT_TYPE":"PAYLOAD","REV_AT_EPOCH":"12404","MEAN_MOTION":"15.06391753","TLE_LINE2":"2 45096  53.0526 109.8884 0001630  50.7176 309.3958 15.06391753124049","ARG_OF_PERICENTER":"50.7176","PERIOD":"95.593","TLE_LINE1":"1 45096U 20006BE  22116.67616456 -.00001277  00000-0 -66848-4 0  9990","NORAD_CAT_ID":"45096","MEAN_ELEMENT_THEORY":"SGP4","GP_ID":"202109230","EPOCH":"2022-04-26T16:13:40.617984","DECAY_DATE":null,"SEMIMAJOR_AXIS":"6925.374","TIME_SYSTEM":"UTC","MEAN_MOTION_DOT":"-0.00001277","MEAN_MOTION_DDOT":"0.0000000000000","EPHEMERIS_TYPE":"0","OBJECT_ID":"2020-006BE","MEAN_ANOMALY":"309.3958","ECCENTRICITY":"0.00016300","LAUNCH_DATE":"2020-01-29","FILE":"3417474","APOAPSIS":"548.368","BSTAR":"-0.00006684800000","INCLINATION":"53.0526","CENTER_NAME":"EARTH","SITE":"AFETR","REF_FRAME":"TEME","CLASSIFICATION_TYPE":"U","RCS_SIZE":"LARGE","PERIAPSIS":"546.110","COUNTRY_CODE":"US","RA_OF_ASC_NODE":"109.8884","ELEMENT_SET_NO":"999"},{"MEAN_MOTION_DDOT":"0.0000000000000","EPHEMERIS_TYPE":"0","MEAN_MOTION_DOT":"0.00001314","TIME_SYSTEM":"UTC","DECAY_DATE":null,"SEMIMAJOR_AXIS":"6925.366","EPOCH":"2022-04-26T11:00:31.629888","GP_ID":"202072064","MEAN_ELEMENT_THEORY":"SGP4","PERIOD":"95.593","ARG_OF_PERICENTER":"68.0750","TLE_LINE1":"1 45098U 20006BG  22116.45869942  .00001314  00000-0  10709-3 0  9992","NORAD_CAT_ID":"45098","TLE_LINE2":"2 45098  53.0527 110.8614 0001658  68.0750 292.0415 15.06394244124016","REV_AT_EPOCH":"12401","MEAN_MOTION":"15.06394244","OBJECT_TYPE":"PAYLOAD","OBJECT_NAME":"STARLINK-1184","ELEMENT_SET_NO":"999","RA_OF_ASC_NODE":"110.8614","RCS_SIZE":"LARGE","CLASSIFICATION_TYPE":"U","COUNTRY_CODE":"US","PERIAPSIS":"546.083","REF_FRAME":"TEME","SITE":"AFETR","CENTER_NAME":"EARTH","BSTAR":"0.00010709000000","INCLINATION":"53.0527","APOAPSIS":"548.379","FILE":"3417035","ECCENTRICITY":"0.00016580","MEAN_ANOMALY":"292.0415","LAUNCH_DATE":"2020-01-29","OBJECT_ID":"2020-006BG"},{"REF_FRAME":"TEME","RCS_SIZE":"LARGE","CLASSIFICATION_TYPE":"U","COUNTRY_CODE":"US","PERIAPSIS":"545.849","ELEMENT_SET_NO":"999","RA_OF_ASC_NODE":"109.8286","MEAN_ANOMALY":"312.7018","ECCENTRICITY":"0.00020150","LAUNCH_DATE":"2020-01-29","OBJECT_ID":"2020-006BH","BSTAR":"0.00008126200000","INCLINATION":"53.0558","FILE":"3417474","APOAPSIS":"548.640","CENTER_NAME":"EARTH","SITE":"AFETR","EPOCH":"2022-04-26T16:34:54.984288","TIME_SYSTEM":"UTC","DECAY_DATE":null,"SEMIMAJOR_AXIS":"6925.380","MEAN_MOTION_DOT":"0.00000929","MEAN_MOTION_DDOT":"0.0000000000000","EPHEMERIS_TYPE":"0","OBJECT_TYPE":"PAYLOAD","OBJECT_NAME":"STARLINK-1186","TLE_LINE2":"2 45099  53.0558 109.8286 0002015  47.4141 312.7018 15.06389779124057","REV_AT_EPOCH":"12405","MEAN_MOTION":"15.06389779","ARG_OF_PERICENTER":"47.4141","PERIOD":"95.593","NORAD_CAT_ID":"45099","TLE_LINE1":"1 45099U 20006BH  22116.69091417  .00000929  00000-0  81262-4 0  9997","GP_ID":"202108224","MEAN_ELEMENT_THEORY":"SGP4"},{"ELEMENT_SET_NO":"999","RA_OF_ASC_NODE":"110.8707","RCS_SIZE":"LARGE","CLASSIFICATION_TYPE":"U","PERIAPSIS":"546.059","COUNTRY_CODE":"US","REF_FRAME":"TEME","SITE":"AFETR","CENTER_NAME":"EARTH","INCLINATION":"53.0552","BSTAR":"-0.00002264900000","FILE":"3417035","APOAPSIS":"548.383","ECCENTRICITY":"0.00016780","MEAN_ANOMALY":"307.7905","LAUNCH_DATE":"2020-01-29","OBJECT_ID":"2020-006BJ","EPHEMERIS_TYPE":"0","MEAN_MOTION_DDOT":"0.0000000000000","MEAN_MOTION_DOT":"-0.00000619","TIME_SYSTEM":"UTC","DECAY_DATE":null,"SEMIMAJOR_AXIS":"6925.356","EPOCH":"2022-04-26T10:55:12.407808","MEAN_ELEMENT_THEORY":"SGP4","GP_ID":"202073566","PERIOD":"95.592","ARG_OF_PERICENTER":"52.3236","TLE_LINE1":"1 45100U 20006BJ  22116.45500472 -.00000619  00000-0 -22649-4 0  9992","NORAD_CAT_ID":"45100","TLE_LINE2":"2 45100  53.0552 110.8707 0001678  52.3236 307.7905 15.06397513124018","REV_AT_EPOCH":"12401","MEAN_MOTION":"15.06397513","OBJECT_TYPE":"PAYLOAD","OBJECT_NAME":"STARLINK-1193"},{"OBJECT_NAME":"STARLINK-1194","OBJECT_TYPE":"PAYLOAD","MEAN_MOTION":"15.06394893","REV_AT_EPOCH":"12405","TLE_LINE2":"2 45101  53.0547 109.6860 0001698  51.5473 308.5668 15.06394893124052","NORAD_CAT_ID":"45101","TLE_LINE1":"1 45101U 20006BK  22116.71670094  .00000658  00000-0  63084-4 0  9999","ARG_OF_PERICENTER":"51.5473","PERIOD":"95.592","MEAN_ELEMENT_THEORY":"SGP4","GP_ID":"202108730","EPOCH":"2022-04-26T17:12:02.961216","SEMIMAJOR_AXIS":"6925.364","DECAY_DATE":null,"TIME_SYSTEM":"UTC","MEAN_MOTION_DOT":"0.00000658","MEAN_MOTION_DDOT":"0.0000000000000","EPHEMERIS_TYPE":"0","OBJECT_ID":"2020-006BK","LAUNCH_DATE":"2020-01-29","ECCENTRICITY":"0.00016980","MEAN_ANOMALY":"308.5668","APOAPSIS":"548.405","FILE":"3417474","BSTAR":"0.00006308400000","INCLINATION":"53.0547","CENTER_NAME":"EARTH","SITE":"AFETR","REF_FRAME":"TEME","COUNTRY_CODE":"US","PERIAPSIS":"546.053","CLASSIFICATION_TYPE":"U","RCS_SIZE":"LARGE","RA_OF_ASC_NODE":"109.6860","ELEMENT_SET_NO":"999"},{"GP_ID":"202107477","MEAN_ELEMENT_THEORY":"SGP4","NORAD_CAT_ID":"45102","TLE_LINE1":"1 45102U 20006BL  22116.67247210  .00000779  00000-0  71190-4 0  9996","ARG_OF_PERICENTER":"57.9220","PERIOD":"95.592","MEAN_MOTION":"15.06398745","REV_AT_EPOCH":"12404","TLE_LINE2":"2 45102  53.0531 109.9051 0001814  57.9220 302.1945 15.06398745124048","OBJECT_NAME":"STARLINK-1195","OBJECT_TYPE":"PAYLOAD","MEAN_MOTION_DDOT":"0.0000000000000","EPHEMERIS_TYPE":"0","MEAN_MOTION_DOT":"0.00000779","SEMIMAJOR_AXIS":"6925.352","DECAY_DATE":null,"TIME_SYSTEM":"UTC","EPOCH":"2022-04-26T16:08:21.589440","SITE":"AFETR","CENTER_NAME":"EARTH","APOAPSIS":"548.474","FILE":"3417474","INCLINATION":"53.0531","BSTAR":"0.00007119000000","OBJECT_ID":"2020-006BL","LAUNCH_DATE":"2020-01-29","ECCENTRICITY":"0.00018140","MEAN_ANOMALY":"302.1945","RA_OF_ASC_NODE":"109.9051","ELEMENT_SET_NO":"999","PERIAPSIS":"545.961","COUNTRY_CODE":"US","RCS_SIZE":"LARGE","CLASSIFICATION_TYPE":"U","REF_FRAME":"TEME"},{"ARG_OF_PERICENTER":"62.3641","PERIOD":"95.592","TLE_LINE1":"1 45103U 20006BM  22116.70470260  .00002381  00000-0  17868-3 0  9996","NORAD_CAT_ID":"45103","MEAN_ELEMENT_THEORY":"SGP4","GP_ID":"202107724","OBJECT_TYPE":"PAYLOAD","OBJECT_NAME":"STARLINK-1196","TLE_LINE2":"2 45103  53.0493 109.8018 0001653  62.3641 297.7515 15.06400055124057","REV_AT_EPOCH":"12405","MEAN_MOTION":"15.06400055","MEAN_MOTION_DOT":"0.00002381","MEAN_MOTION_DDOT":"0.0000000000000","EPHEMERIS_TYPE":"0","EPOCH":"2022-04-26T16:54:46.304640","TIME_SYSTEM":"UTC","DECAY_DATE":null,"SEMIMAJOR_AXIS":"6925.348","CENTER_NAME":"EARTH","SITE":"AFETR","MEAN_ANOMALY":"297.7515","ECCENTRICITY":"0.00016530","LAUNCH_DATE":"2020-01-29","OBJECT_ID":"2020-006BM","BSTAR":"0.00017868000000","INCLINATION":"53.0493","FILE":"3417474","APOAPSIS":"548.358","ELEMENT_SET_NO":"999","RA_OF_ASC_NODE":"109.8018","REF_FRAME":"TEME","RCS_SIZE":"LARGE","CLASSIFICATION_TYPE":"U","COUNTRY_CODE":"US","PERIAPSIS":"546.069"},{"REV_AT_EPOCH":"12181","MEAN_MOTION":"15.06404899","TLE_LINE2":"2 45178  53.0551 269.5201 0001549  83.8358 276.2808 15.06404899121817","OBJECT_NAME":"STARLINK-1138","OBJECT_TYPE":"PAYLOAD","GP_ID":"202109238","MEAN_ELEMENT_THEORY":"SGP4","PERIOD":"95.592","ARG_OF_PERICENTER":"83.8358","TLE_LINE1":"1 45178U 20012A   22116.75725343  .00004508  00000-0  32130-3 0  9997","NORAD_CAT_ID":"45178","DECAY_DATE":null,"SEMIMAJOR_AXIS":"6925.334","TIME_SYSTEM":"UTC","EPOCH":"2022-04-26T18:10:26.696352","MEAN_MOTION_DDOT":"0.0000000000000","EPHEMERIS_TYPE":"0","MEAN_MOTION_DOT":"0.00004508","APOAPSIS":"548.271","FILE":"3417474","BSTAR":"0.00032130000000","INCLINATION":"53.0551","OBJECT_ID":"2020-012A","MEAN_ANOMALY":"276.2808","ECCENTRICITY":"0.00015490","LAUNCH_DATE":"2020-02-17","SITE":"AFETR","CENTER_NAME":"EARTH","RCS_SIZE":"LARGE","CLASSIFICATION_TYPE":"U","COUNTRY_CODE":"US","PERIAPSIS":"546.126","REF_FRAME":"TEME","RA_OF_ASC_NODE":"269.5201","ELEMENT_SET_NO":"999"},{"COUNTRY_CODE":"US","PERIAPSIS":"545.978","RCS_SIZE":"LARGE","CLASSIFICATION_TYPE":"U","REF_FRAME":"TEME","ELEMENT_SET_NO":"999","RA_OF_ASC_NODE":"269.1949","INCLINATION":"53.0545","BSTAR":"0.00019300000000","APOAPSIS":"548.413","FILE":"3417474","LAUNCH_DATE":"2020-02-17","ECCENTRICITY":"0.00017580","MEAN_ANOMALY":"296.9461","OBJECT_ID":"2020-012B","SITE":"AFETR","CENTER_NAME":"EARTH","TIME_SYSTEM":"UTC","SEMIMAJOR_AXIS":"6925.330","DECAY_DATE":null,"EPOCH":"2022-04-26T19:51:16.695648","MEAN_MOTION_DDOT":"0.0000000000000","EPHEMERIS_TYPE":"0","MEAN_MOTION_DOT":"0.00002595","TLE_LINE2":"2 45179  53.0545 269.1949 0001758  63.1708 296.9461 15.06406030121888","MEAN_MOTION":"15.06406030","REV_AT_EPOCH":"12188","OBJECT_TYPE":"PAYLOAD","OBJECT_NAME":"STARLINK-1143","GP_ID":"202107985","MEAN_ELEMENT_THEORY":"SGP4","NORAD_CAT_ID":"45179","TLE_LINE1":"1 45179U 20012B   22116.82727657  .00002595  00000-0  19300-3 0  9994","PERIOD":"95.592","ARG_OF_PERICENTER":"63.1708"}];
